0 SL-12 DEB
1 23296U 85118T   13281.88158690  .00106560  00000-0  31204-1 0  5552
2 23296 063.7747 052.1429 1824501 014.4083 051.7360 11.34155032498178
0 SL-12 DEB
1 23296U 85118T   13282.85070870  .00136142  00000-0  39980-1 0  5562
2 23296 063.7717 050.3759 1821841 014.3050 049.3197 11.34552721498287
0 SL-12 DEB
1 23296U 85118T   13282.94156492  .00143383  00000-0  42134-1 0  5578
2 23296 063.7715 050.2103 1821771 014.3017 060.4195 11.34537058498291
0 SL-12 DEB
1 23296U 85118T   13283.36958088  .00151777  00000-0  44736-1 0  5583
2 23296 063.7711 049.4326 1820754 014.2619 008.6680 11.34642893498344
0 SL-12 DEB
1 23296U 85118T   13283.54136464  .00338188  00000-0  10080+0 0  5596
2 23296 063.7725 049.1163 1820009 014.2631 350.3770 11.34689758498362
0 SL-12 DEB
1 23296U 85118T   13283.91023390  .00123705  00000-0  36711-1 0  5598
2 23296 063.7702 048.4497 1819633 014.2176 057.2341 11.34729524498402
0 SL-12 DEB
1 23296U 85118T   13285.49174208  .00107601  00000-0  32164-1 0  5616
2 23296 063.7682 045.5631 1817354 014.0515 038.7458 11.35012727498583
0 SL-12 DEB
1 23296U 85118T   13286.46428810  .00100173  00000-0  30079-1 0  5626
2 23296 063.7666 043.7871 1815996 013.9541 052.9996 11.35172663498691
0 SL-12 DEB
1 23296U 85118T   13286.81577815  .00104431  00000-0  31425-1 0  5633
2 23296 063.7660 043.1460 1815459 013.9182 049.4742 11.35213421498731
0 SL-12 DEB
1 23296U 85118T   13287.42840911  .00107281  00000-0  32345-1 0  5640
2 23296 063.7653 042.0281 1814740 013.8569 033.3402 11.35298166498804
0 SL-12 DEB
1 23296U 85118T   13287.78412391  .00138442  00000-0  41679-1 0  5650
2 23296 063.7649 041.3795 1814201 013.8199 047.2653 11.35389623498847
0 SL-12 DEB
1 23296U 85118T   13288.39695525  .00157940  00000-0  47555-1 0  5664
2 23296 063.7643 040.2619 1813026 013.7524 032.4077 11.35584245498910
0 SL-12 DEB
1 23296U 85118T   13288.57821245  .00131634  00000-0  39732-1 0  5675
2 23296 063.7641 039.9313 1812762 013.7328 053.4458 11.35614741498935
0 SL-12 DEB
1 23296U 85118T   13288.93510715  .00132945  00000-0  40153-1 0  5688
2 23296 063.7640 039.2801 1812320 013.7012 072.5841 11.35682477498972
0 SL-12 DEB
1 23296U 85118T   13289.72917226  .00137948  00000-0  41724-1 0  5698
2 23296 063.7637 037.8310 1811407 013.6183 079.3695 11.35814822499064
0 SL-12 DEB
1 23296U 85118T   13289.90136816  .00118154  00000-0  35783-1 0  5704
2 23296 063.7635 037.5167 1811307 013.6049 063.4961 11.35833991499089
0 SL-12 DEB
1 23296U 85118T   13290.49982472  .00112519  00000-0  33274-1 0  5710
2 23296 063.7652 036.4220 1814215 013.6415 350.7879 11.36036786499206
0 SL-12 DEB
1 23296U 85118T   13290.51830696  .00132939  00000-0  40208-1 0  5716
2 23296 063.7635 036.3913 1810762 013.5391 066.3647 11.35950648499158
0 SL-12 DEB
1 23296U 85118T   13290.86868412  .00103754  00000-0  31561-1 0  5727
2 23296 063.7620 035.7460 1809834 013.5116 059.2958 11.36030566499194
0 SL-12 DEB
1 23296U 85118T   13291.83599691  .00104854  00000-0  31947-1 0  5736
2 23296 063.7612 033.9807 1808789 013.4166 055.7185 11.36190710499306
0 SL-12 DEB
1 23296U 85118T   13292.80343905  .00104246  00000-0  31781-1 0  5741
2 23296 063.7600 032.2128 1807882 013.3260 053.2328 11.36353736499411
0 SL-12 DEB
1 23296U 85118T   13292.89523302  .00093021  00000-0  28386-1 0  5757
2 23296 063.7599 032.0449 1807801 013.3180 068.7641 11.36364238499423
0 SL-12 DEB
1 23296U 85118T   13293.77081142  .00107281  00000-0  32735-1 0  5764
2 23296 063.7586 030.4440 1807025 013.2379 051.0006 11.36493008499528
0 SL-12 DEB
1 23296U 85118T   13294.82839247  .00124299  00000-0  37884-1 0  5777
2 23296 063.7576 028.5101 1806110 013.1434 058.4400 11.36673902499649
0 SL-12 DEB
1 23296U 85118T   13295.44033764  .00124342  00000-0  37909-1 0  5784
2 23296 063.7577 027.3920 1805581 013.0934 042.7075 11.36769297499716
0 SL-12 DEB
1 23296U 85118T   13295.70510655  .00116388  00000-0  35485-1 0  5791
2 23296 063.7573 026.9073 1805448 013.0679 046.2923 11.36808439499740
